COMMENT,ORIGINATOR,NORAD_CAT_ID,OBJECT_NAME,OBJECT_TYPE,CLASSIFICATION_TYPE,INTLDES,EPOCH,EPOCH_MICROSECONDS,MEAN_MOTION,ECCENTRICITY,INCLINATION,RA_OF_ASC_NODE,ARG_OF_PERICENTER,MEAN_ANOMALY,EPHEMERIS_TYPE,ELEMENT_SET_NO,REV_AT_EPOCH,BSTAR,MEAN_MOTION_DOT,MEAN_MOTION_DDOT,FILE,TLE_LINE0,TLE_LINE1,TLE_LINE2,OBJECT_ID,OBJECT_NUMBER,SEMIMAJOR_AXIS,PERIOD,APOGEE,PERIGEE,DECAYED
"GENERATED VIA SPACETRACK.ORG API","18 SPCS","55099","SPACEBEE-156","PAYLOAD","U","23001CU","2024-02-14 16:31:58","196064","15.33928404","0.0010675","97.4396","110.3027","225.9974","134.0389","0","999","6208","0.0014571","0.00048071","0","4188685","0 SPACEBEE-156","1 55099U 23001CU  24045.68886801  .00048071  00000-0  14571-2 0  9994","2 55099  97.4396 110.3027 0010675 225.9974 134.0389 15.33928404 62082","2023-001CU","55099","6842.242","93.877","471.411","456.803","0"
"GENERATED VIA SPACETRACK.ORG API","18 SPCS","55099","SPACEBEE-156","PAYLOAD","U","23001CU","2024-02-14 16:31:58","196064","15.33928404","0.0010675","97.4396","110.3027","225.9974","134.0389","0","999","6208","0.0014571","0.00048071","0","4188727","0 SPACEBEE-156","1 55099U 23001CU  24045.68886801  .00048071  00000-0  14571-2 0  9994","2 55099  97.4396 110.3027 0010675 225.9974 134.0389 15.33928404 62082","2023-001CU","55099","6842.242","93.877","471.411","456.803","0"
"GENERATED VIA SPACETRACK.ORG API","18 SPCS","55099","SPACEBEE-156","PAYLOAD","U","23001CU","2024-02-15 14:27:03","123936","15.34020593","0.0010708","97.4396","111.223","222.7565","137.2846","0","999","6222","0.0014821","0.00049047","0","4189324","0 SPACEBEE-156","1 55099U 23001CU  24046.60211949  .00049047  00000-0  14821-2 0  9994","2 55099  97.4396 111.2230 0010708 222.7565 137.2846 15.34020593 62228","2023-001CU","55099","6841.968","93.871","471.160","456.507","0"
"GENERATED VIA SPACETRACK.ORG API","18 SPCS","55099","SPACEBEE-156","PAYLOAD","U","23001CU","2024-02-15 17:34:54","884352","15.34033709","0.0010726","97.4396","111.3542","222.2603","137.7814","0","999","6224","0.0014257","0.00047186","0","4189671","0 SPACEBEE-156","1 55099U 23001CU  24046.73257968  .00047186  00000-0  14257-2 0  9994","2 55099  97.4396 111.3542 0010726 222.2603 137.7814 15.34033709 62248","2023-001CU","55099","6841.929","93.870","471.133","456.455","0"
"GENERATED VIA SPACETRACK.ORG API","18 SPCS","55099","SPACEBEE-156","PAYLOAD","U","23001CU","2024-02-15 17:34:54","884352","15.34033709","0.0010726","97.4396","111.3542","222.2603","137.7814","0","999","6224","0.0014257","0.00047186","0","4189707","0 SPACEBEE-156","1 55099U 23001CU  24046.73257968  .00047186  00000-0  14257-2 0  9994","2 55099  97.4396 111.3542 0010726 222.2603 137.7814 15.34033709 62248","2023-001CU","55099","6841.929","93.870","471.133","456.455","0"
"GENERATED VIA SPACETRACK.ORG API","18 SPCS","55099","SPACEBEE-156","PAYLOAD","U","23001CU","2024-02-16 02:58:29","556480","15.34076068","0.0010767","97.4397","111.7484","220.4743","139.57","0","999","6230","0.0014725","0.00048813","0","4190317","0 SPACEBEE-156","1 55099U 23001CU  24047.12395320  .00048813  00000-0  14725-2 0  9991","2 55099  97.4397 111.7484 0010767 220.4743 139.5700 15.34076068 62304","2023-001CU","55099","6841.803","93.868","471.035","456.302","0"
"GENERATED VIA SPACETRACK.ORG API","18 SPCS","55099","SPACEBEE-156","PAYLOAD","U","23001CU","2024-02-16 17:03:49","985280","15.34135663","0.0010748","97.4396","112.3401","218.557","141.4906","0","999","6239","0.001619","0.00053814","0","4190592","0 SPACEBEE-156","1 55099U 23001CU  24047.71099520  .00053814  00000-0  16190-2 0  9994","2 55099  97.4396 112.3401 0010748 218.5570 141.4906 15.34135663 62390","2023-001CU","55099","6841.626","93.864","470.844","456.138","0"
"GENERATED VIA SPACETRACK.ORG API","18 SPCS","55099","SPACEBEE-156","PAYLOAD","U","23001CU","2024-02-17 04:01:17","857920","15.34176849","0.0010741","97.4396","112.8001","216.8933","143.1571","0","999","6246","0.0014314","0.00047592","0","4190902","0 SPACEBEE-156","1 55099U 23001CU  24048.16756780  .00047592  00000-0  14314-2 0  9994","2 55099  97.4396 112.8001 0010741 216.8933 143.1571 15.34176849 62464","2023-001CU","55099","6841.504","93.861","470.717","456.020","0"
"GENERATED VIA SPACETRACK.ORG API","18 SPCS","55099","SPACEBEE-156","PAYLOAD","U","23001CU","2024-02-17 04:01:17","857920","15.34176849","0.0010741","97.4396","112.8001","216.8933","143.1571","0","999","6246","0.0014314","0.00047592","0","4191255","0 SPACEBEE-156","1 55099U 23001CU  24048.16756780  .00047592  00000-0  14314-2 0  9994","2 55099  97.4396 112.8001 0010741 216.8933 143.1571 15.34176849 62464","2023-001CU","55099","6841.504","93.861","470.717","456.020","0"
"GENERATED VIA SPACETRACK.ORG API","18 SPCS","55099","SPACEBEE-156","PAYLOAD","U","23001CU","2024-02-17 18:06:34","860096","15.34233332","0.0010662","97.4396","113.3921","215.1287","144.9254","0","999","6255","0.0013575","0.00045196","0","4191569","0 SPACEBEE-156","1 55099U 23001CU  24048.75457014  .00045196  00000-0  13575-2 0  9993","2 55099  97.4396 113.3921 0010662 215.1287 144.9254 15.34233332 62555","2023-001CU","55099","6841.336","93.858","470.495","455.906","0"
"GENERATED VIA SPACETRACK.ORG API","18 SPCS","55099","SPACEBEE-156","PAYLOAD","U","23001CU","2024-02-18 14:27:29","291904","15.34322551","0.001069","97.4395","114.2466","212.4474","147.6113","0","999","6268","0.0015029","0.00050221","0","4192133","0 SPACEBEE-156","1 55099U 23001CU  24049.60242236  .00050221  00000-0  15029-2 0  9997","2 55099  97.4395 114.2466 0010690 212.4474 147.6113 15.34322551 62687","2023-001CU","55099","6841.070","93.852","470.249","455.622","0"
"GENERATED VIA SPACETRACK.ORG API","18 SPCS","55099","SPACEBEE-156","PAYLOAD","U","23001CU","2024-02-18 17:35:18","830976","15.34335668","0.0010704","97.4396","114.3782","211.9201","148.1395","0","999","6270","0.0014893","0.00049783","0","4192435","0 SPACEBEE-156","1 55099U 23001CU  24049.73285684  .00049783  00000-0  14893-2 0  9994","2 55099  97.4396 114.3782 0010704 211.9201 148.1395 15.34335668 62702","2023-001CU","55099","6841.031","93.852","470.219","455.574","0"
"GENERATED VIA SPACETRACK.ORG API","18 SPCS","55099","SPACEBEE-156","PAYLOAD","U","23001CU","2024-02-18 17:35:18","830976","15.34335668","0.0010704","97.4396","114.3782","211.9201","148.1395","0","999","6270","0.0014893","0.00049783","0","4192439","0 SPACEBEE-156","1 55099U 23001CU  24049.73285684  .00049783  00000-0  14893-2 0  9994","2 55099  97.4396 114.3782 0010704 211.9201 148.1395 15.34335668 62702","2023-001CU","55099","6841.031","93.852","470.219","455.574","0"
"GENERATED VIA SPACETRACK.ORG API","18 SPCS","55099","SPACEBEE-156","PAYLOAD","U","23001CU","2024-02-19 02:58:46","899552","15.34374414","0.0010708","97.4398","114.7723","210.4394","149.6228","0","999","6276","0.0014591","0.00048826","0","4193039","0 SPACEBEE-156","1 55099U 23001CU  24050.12415393  .00048826  00000-0  14591-2 0  9993","2 55099  97.4398 114.7723 0010708 210.4394 149.6228 15.34374414 62763","2023-001CU","55099","6840.916","93.849","470.107","455.456","0"
"GENERATED VIA SPACETRACK.ORG API","18 SPCS","55099","SPACEBEE-156","PAYLOAD","U","23001CU","2024-02-19 17:03:57","559968","15.34424718","0.0010761","97.4399","115.3639","207.7044","152.3626","0","999","6285","0.0012916","0.0004325","0","4193358","0 SPACEBEE-156","1 55099U 23001CU  24050.71108287  .00043250  00000-0  12916-2 0  9994","2 55099  97.4399 115.3639 0010761 207.7044 152.3626 15.34424718 62853","2023-001CU","55099","6840.767","93.846","469.993","455.270","0"
"GENERATED VIA SPACETRACK.ORG API","18 SPCS","55099","SPACEBEE-156","PAYLOAD","U","23001CU","2024-02-20 04:01:18","73920","15.34459936","0.0010798","97.4399","115.824","205.9904","154.0798","0","999","6292","0.0011781","0.00039468","0","4193662","0 SPACEBEE-156","1 55099U 23001CU  24051.16757030  .00039468  00000-0  11781-2 0  9995","2 55099  97.4399 115.8240 0010798 205.9904 154.0798 15.34459936 62928","2023-001CU","55099","6840.662","93.844","469.914","455.141","0"
"GENERATED VIA SPACETRACK.ORG API","18 SPCS","55099","SPACEBEE-156","PAYLOAD","U","23001CU","2024-02-20 10:16:55","58592","15.34480934","0.0010898","97.4397","116.087","204.5658","155.5067","0","999","6296","0.0011533","0.00038658","0","4193961","0 SPACEBEE-156","1 55099U 23001CU  24051.42841503  .00038658  00000-0  11533-2 0  9998","2 55099  97.4397 116.0870 0010898 204.5658 155.5067 15.34480934 62961","2023-001CU","55099","6840.600","93.843","469.920","455.010","0"
"GENERATED VIA SPACETRACK.ORG API","18 SPCS","55099","SPACEBEE-156","PAYLOAD","U","23001CU","2024-02-20 18:06:25","862400","15.34509915","0.0010903","97.4396","116.4158","203.4268","156.6479","0","999","6301","0.0012143","0.00040756","0","4194241","0 SPACEBEE-156","1 55099U 23001CU  24051.75446600  .00040756  00000-0  12143-2 0  9993","2 55099  97.4396 116.4158 0010903 203.4268 156.6479 15.34509915 63012","2023-001CU","55099","6840.514","93.841","469.837","454.920","0"
"GENERATED VIA SPACETRACK.ORG API","18 SPCS","55099","SPACEBEE-156","PAYLOAD","U","23001CU","2024-02-21 03:29:50","157888","15.3454289","0.0010963","97.4397","116.81","202.3391","157.7376","0","999","6307","0.001249","0.00041974","0","4194887","0 SPACEBEE-156","1 55099U 23001CU  24052.14571942  .00041974  00000-0  12490-2 0  9993","2 55099  97.4397 116.8100 0010963 202.3391 157.7376 15.34542890 63078","2023-001CU","55099","6840.416","93.839","469.780","454.781","0"
"GENERATED VIA SPACETRACK.ORG API","18 SPCS","55099","SPACEBEE-156","PAYLOAD","U","23001CU","2024-02-21 17:34:55","286112","15.34586802","0.0011001","97.4394","117.4016","200.0991","159.9821","0","999","6316","0.0010488","0.00035252","0","4195117","0 SPACEBEE-156","1 55099U 23001CU  24052.73258433  .00035252  00000-0  10488-2 0  9992","2 55099  97.4394 117.4016 0011001 200.0991 159.9821 15.34586802 63163","2023-001CU","55099","6840.285","93.836","469.675","454.625","0"
